UWE-3
1 39446U 13066AG  26032.81049592  .00005530  00000-0  48904-3 0  9994
2 39446  97.8538 348.2312 0051819  52.2263 308.3635 14.95692020657335
UNISAT-6
1 40012U 14033C   26032.95361256  .00003861  00000-0  42547-3 0  9991
2 40012  97.7661 188.2771 0046333 153.0940 207.2694 14.87318839626051
DUCHIFAT-1
1 40021U 14033M   26032.62112611  .00040775  00000-0  84518-3 0  9993
2 40021  98.0704  74.9143 0005629 192.2939 167.8172 15.45617220634695
FUNCUBE-3 (EO-79)
1 40025U 14033R   26032.93806404  .00009973  00000-0  52705-3 0  9999
2 40025  98.0986  34.8353 0008351 341.2851  18.8072 15.15687234632526
LILACSAT-2
1 40908U 15049K   26033.01099567  .00016651  00000-0  33506-3 0  9990
2 40908  97.4854  65.0248 0008512  35.3740 324.8072 15.46644967574827
CAS-2T & KS-1Q
1 41847U 16066G   26032.75358204  .00001831  00000-0  26582-3 0  9999
2 41847  98.3957 109.9886 0343183 180.1894 179.9223 14.44330028485246
FOX-1B (AO-91)
1 43017U 17073E   26032.62334244  .00007657  00000-0  35036-3 0  9999
2 43017  97.4912 262.6906 0159641  75.8797 286.0114 15.10053400444912
FOX-1A (AO-85)
1 40967U 15058D   26032.95736204  .00002637  00000-0  24717-3 0  9996
2 40967  64.7776 338.9529 0130630 110.0463 251.4766 14.90062695 93412
DIWATA-2B (PO-101)
1 43678U 18084H   26032.96365889  .00003508  00000-0  28878-3 0  9998
2 43678  98.1074 223.5314 0007907 239.6240 120.4201 14.99785277395947
ESHAIL-2
1 43700U 18090A   26032.88725214  .00000134  00000-0  00000-0 0  9990
2 43700   0.0185  90.4806 0002309 261.6092 125.1693  1.00272799 26324
ITASAT-1
1 43786U 18099AE  26032.70213789  .00007513  00000-0  38199-3 0  9994
2 43786  97.4243  86.9618 0014543 103.8453 256.4400 15.17044881392350
FOX-1CLIFF (AO-95)
1 43770U 18099N   26032.72548637  .00011060  00000-0  46687-3 0  9995
2 43770  97.4590  93.6589 0010617 103.6491 256.5929 15.23397865392579
JY1SAT (JO-97)
1 43803U 18099AX  26032.96744119  .00015968  00000-0  57051-3 0  9999
2 43803  97.4337  95.6663 0006835  41.1438 319.0316 15.28897599392933
UWE-4
1 43880U 18111E   26032.77783425  .00027007  00000-0  73226-3 0  9990
2 43880  97.5871 315.8328 0012006  90.1606 270.1014 15.37537835389915
CAS-6 (TO-108)
1 44881U 19093C   26032.93733940  .00000488  00000-0  61453-4 0  9991
2 44881  97.7687 108.4104 0013788 166.4667 193.6921 14.86250421331328
DOSAAF-85 (RS-44)
1 44909U 19096E   26032.83206085  .00000034  00000-0  82910-4 0  9997
2 44909  82.5177  69.6541 0218631 100.8232 261.7558 12.79746829285033
