[{"OBJECT_NAME":"UWE-3","OBJECT_ID":"2013-066AG","EPOCH":"2026-02-01T19:27:06.847488","MEAN_MOTION":14.9569202,"ECCENTRICITY":0.00518187,"INCLINATION":97.8538,"RA_OF_ASC_NODE":348.2312,"ARG_OF_PERICENTER":52.2263,"MEAN_ANOMALY":308.3635,"EPHEMERIS_TYPE":0,"CLASSIFICATION_TYPE":"U","NORAD_CAT_ID":39446,"ELEMENT_SET_NO":999,"REV_AT_EPOCH":65733,"BSTAR":0.00048904478,"MEAN_MOTION_DOT":5.53e-5,"MEAN_MOTION_DDOT":0},{"OBJECT_NAME":"UNISAT-6","OBJECT_ID":"2014-033C","EPOCH":"2026-02-01T22:53:12.125184","MEAN_MOTION":14.87318839,"ECCENTRICITY":0.00463333,"INCLINATION":97.7661,"RA_OF_ASC_NODE":188.2771,"ARG_OF_PERICENTER":153.094,"MEAN_ANOMALY":207.2694,"EPHEMERIS_TYPE":0,"CLASSIFICATION_TYPE":"U","NORAD_CAT_ID":40012,"ELEMENT_SET_NO":999,"REV_AT_EPOCH":62605,"BSTAR":0.0004254656,"MEAN_MOTION_DOT":3.861e-5,"MEAN_MOTION_DDOT":0},{"OBJECT_NAME":"DUCHIFAT-1","OBJECT_ID":"2014-033M","EPOCH":"2026-02-01T14:54:25.295904","MEAN_MOTION":15.4561722,"ECCENTRICITY":0.00056287,"INCLINATION":98.0704,"RA_OF_ASC_NODE":74.9143,"ARG_OF_PERICENTER":192.2939,"MEAN_ANOMALY":167.8172,"EPHEMERIS_TYPE":0,"CLASSIFICATION_TYPE":"U","NORAD_CAT_ID":40021,"ELEMENT_SET_NO":999,"REV_AT_EPOCH":63469,"BSTAR":0.00084517661,"MEAN_MOTION_DOT":0.00040775,"MEAN_MOTION_DDOT":0},{"OBJECT_NAME":"QB50P1","OBJECT_ID":"2014-033R","EPOCH":"2026-02-01T22:30:48.733056","MEAN_MOTION":15.15687234,"ECCENTRICITY":0.0008351,"INCLINATION":98.0986,"RA_OF_ASC_NODE":34.8353,"ARG_OF_PERICENTER":341.2851,"MEAN_ANOMALY":18.8072,"EPHEMERIS_TYPE":0,"CLASSIFICATION_TYPE":"U","NORAD_CAT_ID":40025,"ELEMENT_SET_NO":999,"REV_AT_EPOCH":63252,"BSTAR":0.00052704544,"MEAN_MOTION_DOT":9.973e-5,"MEAN_MOTION_DDOT":0},{"OBJECT_NAME":"LILACSAT-2","OBJECT_ID":"2015-049K","EPOCH":"2026-02-02T00:15:50.025888","MEAN_MOTION":15.46644967,"ECCENTRICITY":0.00085123,"INCLINATION":97.4854,"RA_OF_ASC_NODE":65.0248,"ARG_OF_PERICENTER":35.374,"MEAN_ANOMALY":324.8072,"EPHEMERIS_TYPE":0,"CLASSIFICATION_TYPE":"U","NORAD_CAT_ID":40908,"ELEMENT_SET_NO":999,"REV_AT_EPOCH":57482,"BSTAR":0.00033506391,"MEAN_MOTION_DOT":0.00016651,"MEAN_MOTION_DDOT":0},{"OBJECT_NAME":"FOX-1A (AO-85)","OBJECT_ID":"2015-058D","EPOCH":"2026-02-01T22:58:36.080256","MEAN_MOTION":14.90062695,"ECCENTRICITY":0.01306298,"INCLINATION":64.7776,"RA_OF_ASC_NODE":338.9529,"ARG_OF_PERICENTER":110.0463,"MEAN_ANOMALY":251.4766,"EPHEMERIS_TYPE":0,"CLASSIFICATION_TYPE":"U","NORAD_CAT_ID":40967,"ELEMENT_SET_NO":999,"REV_AT_EPOCH":9341,"BSTAR":0.00024716874,"MEAN_MOTION_DOT":2.637e-5,"MEAN_MOTION_DDOT":0},{"OBJECT_NAME":"CAS-2T & KS-1Q","OBJECT_ID":"2016-066G","EPOCH":"2026-02-01T18:05:09.488256","MEAN_MOTION":14.44330028,"ECCENTRICITY":0.03431835,"INCLINATION":98.3957,"RA_OF_ASC_NODE":109.9886,"ARG_OF_PERICENTER":180.1894,"MEAN_ANOMALY":179.9223,"EPHEMERIS_TYPE":0,"CLASSIFICATION_TYPE":"U","NORAD_CAT_ID":41847,"ELEMENT_SET_NO":999,"REV_AT_EPOCH":48524,"BSTAR":0.00026581885,"MEAN_MOTION_DOT":1.831e-5,"MEAN_MOTION_DDOT":0},{"OBJECT_NAME":"RADFXSAT (FOX-1B)","OBJECT_ID":"2017-073E","EPOCH":"2026-02-01T14:57:36.786816","MEAN_MOTION":15.100534,"ECCENTRICITY":0.01596408,"INCLINATION":97.4912,"RA_OF_ASC_NODE":262.6906,"ARG_OF_PERICENTER":75.8797,"MEAN_ANOMALY":286.0114,"EPHEMERIS_TYPE":0,"CLASSIFICATION_TYPE":"U","NORAD_CAT_ID":43017,"ELEMENT_SET_NO":999,"REV_AT_EPOCH":44491,"BSTAR":0.00035036016,"MEAN_MOTION_DOT":7.657e-5,"MEAN_MOTION_DDOT":0},{"OBJECT_NAME":"DIWATA-2B","OBJECT_ID":"2018-084H","EPOCH":"2026-02-01T23:07:40.128096","MEAN_MOTION":14.99785277,"ECCENTRICITY":0.00079072,"INCLINATION":98.1074,"RA_OF_ASC_NODE":223.5314,"ARG_OF_PERICENTER":239.624,"MEAN_ANOMALY":120.4201,"EPHEMERIS_TYPE":0,"CLASSIFICATION_TYPE":"U","NORAD_CAT_ID":43678,"ELEMENT_SET_NO":999,"REV_AT_EPOCH":39594,"BSTAR":0.00028878414,"MEAN_MOTION_DOT":3.508e-5,"MEAN_MOTION_DDOT":0},{"OBJECT_NAME":"ES'HAIL 2","OBJECT_ID":"2018-090A","EPOCH":"2026-02-01T21:17:38.584896","MEAN_MOTION":1.00272799,"ECCENTRICITY":0.00023087,"INCLINATION":0.0185,"RA_OF_ASC_NODE":90.4806,"ARG_OF_PERICENTER":261.6092,"MEAN_ANOMALY":125.1693,"EPHEMERIS_TYPE":0,"CLASSIFICATION_TYPE":"U","NORAD_CAT_ID":43700,"ELEMENT_SET_NO":999,"REV_AT_EPOCH":2632,"BSTAR":0,"MEAN_MOTION_DOT":1.34e-6,"MEAN_MOTION_DDOT":0},{"OBJECT_NAME":"FOX-1CLIFF (AO-95)","OBJECT_ID":"2018-099N","EPOCH":"2026-02-01T17:24:42.022368","MEAN_MOTION":15.23397865,"ECCENTRICITY":0.00106169,"INCLINATION":97.459,"RA_OF_ASC_NODE":93.6589,"ARG_OF_PERICENTER":103.6491,"MEAN_ANOMALY":256.5929,"EPHEMERIS_TYPE":0,"CLASSIFICATION_TYPE":"U","NORAD_CAT_ID":43770,"ELEMENT_SET_NO":999,"REV_AT_EPOCH":39257,"BSTAR":0.00046686628,"MEAN_MOTION_DOT":0.0001106,"MEAN_MOTION_DDOT":0},{"OBJECT_NAME":"ITASAT","OBJECT_ID":"2018-099AE","EPOCH":"2026-02-01T16:51:04.713696","MEAN_MOTION":15.17044881,"ECCENTRICITY":0.00145433,"INCLINATION":97.4243,"RA_OF_ASC_NODE":86.9618,"ARG_OF_PERICENTER":103.8453,"MEAN_ANOMALY":256.44,"EPHEMERIS_TYPE":0,"CLASSIFICATION_TYPE":"U","NORAD_CAT_ID":43786,"ELEMENT_SET_NO":999,"REV_AT_EPOCH":39235,"BSTAR":0.00038198927,"MEAN_MOTION_DOT":7.513e-5,"MEAN_MOTION_DDOT":0},{"OBJECT_NAME":"JY1SAT (JO-97)","OBJECT_ID":"2018-099AX","EPOCH":"2026-02-01T23:13:06.918816","MEAN_MOTION":15.28897599,"ECCENTRICITY":0.00068351,"INCLINATION":97.4337,"RA_OF_ASC_NODE":95.6663,"ARG_OF_PERICENTER":41.1438,"MEAN_ANOMALY":319.0316,"EPHEMERIS_TYPE":0,"CLASSIFICATION_TYPE":"U","NORAD_CAT_ID":43803,"ELEMENT_SET_NO":999,"REV_AT_EPOCH":39293,"BSTAR":0.00057050683,"MEAN_MOTION_DOT":0.00015968,"MEAN_MOTION_DDOT":0},{"OBJECT_NAME":"UWE-4","OBJECT_ID":"2018-111E","EPOCH":"2026-02-01T18:40:04.879200","MEAN_MOTION":15.37537835,"ECCENTRICITY":0.00120061,"INCLINATION":97.5871,"RA_OF_ASC_NODE":315.8328,"ARG_OF_PERICENTER":90.1606,"MEAN_ANOMALY":270.1014,"EPHEMERIS_TYPE":0,"CLASSIFICATION_TYPE":"U","NORAD_CAT_ID":43880,"ELEMENT_SET_NO":999,"REV_AT_EPOCH":38991,"BSTAR":0.0007322602,"MEAN_MOTION_DOT":0.00027007,"MEAN_MOTION_DDOT":0},{"OBJECT_NAME":"TIANYAN 01","OBJECT_ID":"2019-093C","EPOCH":"2026-02-01T22:29:46.124160","MEAN_MOTION":14.86250421,"ECCENTRICITY":0.00137883,"INCLINATION":97.7687,"RA_OF_ASC_NODE":108.4104,"ARG_OF_PERICENTER":166.4667,"MEAN_ANOMALY":193.6921,"EPHEMERIS_TYPE":0,"CLASSIFICATION_TYPE":"U","NORAD_CAT_ID":44881,"ELEMENT_SET_NO":999,"REV_AT_EPOCH":33132,"BSTAR":6.145339e-5,"MEAN_MOTION_DOT":4.88e-6,"MEAN_MOTION_DDOT":0},{"OBJECT_NAME":"RS-44 & BREEZE-KM R/B","OBJECT_ID":"2019-096E","EPOCH":"2026-02-01T19:58:10.057440","MEAN_MOTION":12.79746829,"ECCENTRICITY":0.0218631,"INCLINATION":82.5177,"RA_OF_ASC_NODE":69.6541,"ARG_OF_PERICENTER":100.8232,"MEAN_ANOMALY":261.7558,"EPHEMERIS_TYPE":0,"CLASSIFICATION_TYPE":"U","NORAD_CAT_ID":44909,"ELEMENT_SET_NO":999,"REV_AT_EPOCH":28503,"BSTAR":8.2910434e-5,"MEAN_MOTION_DOT":3.4e-7,"MEAN_MOTION_DDOT":0}]
